{
  "norad_id": 65315,
  "name": "PELICAN-3",
  "history": [
    {
      "epoch": "2026-03-27T05:05:20.577408Z",
      "apogee_km": 447.53434365443354,
      "perigee_km": 441.06258137469194,
      "latitude_deg": 7.29682410471581e-05,
      "longitude_deg": -97.43043776784846,
      "height_km": 450.4357822753256,
      "semi_major_axis_km": 6822.4354625145625,
      "eccentricity": 0.0004743,
      "inclination_deg": 97.2211,
      "raan_deg": 163.5554,
      "arg_perigee_deg": 201.4975,
      "mean_anomaly_deg": 158.6074,
      "mean_motion_rev_day": 15.40613176
    },
    {
      "epoch": "2026-03-29T03:51:18.997056Z",
      "apogee_km": 447.69270051426247,
      "perigee_km": 440.77345278252506,
      "latitude_deg": -6.6841496805142e-05,
      "longitude_deg": -78.92115743836928,
      "height_km": 450.5860555557627,
      "semi_major_axis_km": 6822.3700766483935,
      "eccentricity": 0.0005071,
      "inclination_deg": 97.2198,
      "raan_deg": 165.4787,
      "arg_perigee_deg": 201.1681,
      "mean_anomaly_deg": 158.9356,
      "mean_motion_rev_day": 15.40635324
    },
    {
      "epoch": "2026-03-29T17:53:05.698176Z",
      "apogee_km": 447.378902447138,
      "perigee_km": 441.1445944707957,
      "latitude_deg": -4.315488256056984e-05,
      "longitude_deg": 70.64327507077043,
      "height_km": 450.0381726185393,
      "semi_major_axis_km": 6822.398748458966,
      "eccentricity": 0.0004569,
      "inclination_deg": 97.2257,
      "raan_deg": 166.0639,
      "arg_perigee_deg": 211.7997,
      "mean_anomaly_deg": 148.2974,
      "mean_motion_rev_day": 15.40625612
    },
    {
      "epoch": "2026-03-29T17:53:05.699040Z",
      "apogee_km": 447.379038895112,
      "perigee_km": 441.1444580228208,
      "latitude_deg": 5.788531206422664e-05,
      "longitude_deg": 70.6432587215853,
      "height_km": 450.0382756550816,
      "semi_major_axis_km": 6822.398748458966,
      "eccentricity": 0.00045692,
      "inclination_deg": 97.2257,
      "raan_deg": 166.0639,
      "arg_perigee_deg": 211.7998,
      "mean_anomaly_deg": 148.2974,
      "mean_motion_rev_day": 15.40625612
    },
    {
      "epoch": "2026-03-30T11:01:55.237440Z",
      "apogee_km": 447.18145167828516,
      "perigee_km": 441.34966197271206,
      "latitude_deg": -6.607455954767826e-05,
      "longitude_deg": 173.43205887924057,
      "height_km": 449.86506198562324,
      "semi_major_axis_km": 6822.402556825498,
      "eccentricity": 0.0004274,
      "inclination_deg": 97.2219,
      "raan_deg": 166.7633,
      "arg_perigee_deg": 212.0143,
      "mean_anomaly_deg": 148.0844,
      "mean_motion_rev_day": 15.40624322
    },
    {
      "epoch": "2026-03-31T05:44:15.783648Z",
      "apogee_km": 447.3776180249197,
      "perigee_km": 441.15831365805934,
      "latitude_deg": -1.2764328602338194e-05,
      "longitude_deg": -107.15277217946716,
      "height_km": 449.5963554717011,
      "semi_major_axis_km": 6822.40496584149,
      "eccentricity": 0.0004558,
      "inclination_deg": 97.2205,
      "raan_deg": 167.5323,
      "arg_perigee_deg": 224.9627,
      "mean_anomaly_deg": 135.1251,
      "mean_motion_rev_day": 15.40623506
    },
    {
      "epoch": "2026-04-01T05:07:14.189952Z",
      "apogee_km": 447.6250932419498,
      "perigee_km": 441.21052720937587,
      "latitude_deg": 6.274022064970894e-05,
      "longitude_deg": -97.89154115804388,
      "height_km": 450.18928279407385,
      "semi_major_axis_km": 6822.554810225663,
      "eccentricity": 0.0004701,
      "inclination_deg": 97.2217,
      "raan_deg": 168.4972,
      "arg_perigee_deg": 214.4754,
      "mean_anomaly_deg": 145.6189,
      "mean_motion_rev_day": 15.40572751
    },
    {
      "epoch": "2026-04-02T04:30:14.758848Z",
      "apogee_km": 448.0191816224151,
      "perigee_km": 440.83774921351596,
      "latitude_deg": -4.555507890766847e-05,
      "longitude_deg": -88.64192267800378,
      "height_km": 450.41561096706164,
      "semi_major_axis_km": 6822.565465417965,
      "eccentricity": 0.0005263,
      "inclination_deg": 97.2206,
      "raan_deg": 169.4595,
      "arg_perigee_deg": 217.2292,
      "mean_anomaly_deg": 142.859,
      "mean_motion_rev_day": 15.40569142
    },
    {
      "epoch": "2026-04-03T17:55:00.122016Z",
      "apogee_km": 447.83920282236886,
      "perigee_km": 440.7029639671373,
      "latitude_deg": 6.442276461260804e-07,
      "longitude_deg": 70.17267789067097,
      "height_km": 450.4687356558287,
      "semi_major_axis_km": 6822.408083394753,
      "eccentricity": 0.000523,
      "inclination_deg": 97.221,
      "raan_deg": 170.9996,
      "arg_perigee_deg": 210.6397,
      "mean_anomaly_deg": 149.4545,
      "mean_motion_rev_day": 15.4062245
    },
    {
      "epoch": "2026-04-04T18:51:27.600768Z",
      "apogee_km": 447.8370380271954,
      "perigee_km": 440.50033049434205,
      "latitude_deg": 1.3400101065740279e-05,
      "longitude_deg": 56.060191627472946,
      "height_km": 450.5620026842323,
      "semi_major_axis_km": 6822.305684260768,
      "eccentricity": 0.0005377,
      "inclination_deg": 97.2205,
      "raan_deg": 172.0259,
      "arg_perigee_deg": 207.0944,
      "mean_anomaly_deg": 153.0023,
      "mean_motion_rev_day": 15.40657136
    },
    {
      "epoch": "2026-04-05T04:12:37.536480Z",
      "apogee_km": 447.8920664340876,
      "perigee_km": 440.3980624775659,
      "latitude_deg": 6.708230228069255e-05,
      "longitude_deg": -84.23061865459331,
      "height_km": 450.68686392247366,
      "semi_major_axis_km": 6822.282064455826,
      "eccentricity": 0.00054923,
      "inclination_deg": 97.22,
      "raan_deg": 172.4106,
      "arg_perigee_deg": 204.3225,
      "mean_anomaly_deg": 155.7764,
      "mean_motion_rev_day": 15.40665137
    },
    {
      "epoch": "2026-04-05T16:40:50.922912Z",
      "apogee_km": 447.83458783121023,
      "perigee_km": 440.4692447172001,
      "latitude_deg": -1.6791969891408323e-06,
      "longitude_deg": 88.71557175867659,
      "height_km": 450.5969945008527,
      "semi_major_axis_km": 6822.288916274205,
      "eccentricity": 0.0005398,
      "inclination_deg": 97.2203,
      "raan_deg": 172.9247,
      "arg_perigee_deg": 205.7264,
      "mean_anomaly_deg": 154.3715,
      "mean_motion_rev_day": 15.40662816
    },
    {
      "epoch": "2026-04-06T05:09:04.322304Z",
      "apogee_km": 447.9556966295804,
      "perigee_km": 440.36016279253545,
      "latitude_deg": 3.802125129942324e-05,
      "longitude_deg": -98.34020578743244,
      "height_km": 450.8205225439274,
      "semi_major_axis_km": 6822.294929711058,
      "eccentricity": 0.00055667,
      "inclination_deg": 97.2188,
      "raan_deg": 173.4369,
      "arg_perigee_deg": 201.4207,
      "mean_anomaly_deg": 158.6808,
      "mean_motion_rev_day": 15.40660779
    }
  ]
}